ONEWEB-0118             
1 47264U 20100G   24051.80250775 -.00000080  00000+0 -25651-3 0  9993
2 47264  87.9045 159.2719 0001508 127.5138 232.6128 13.12444629153574
ONEWEB-0119             
1 47265U 20100H   24051.83110395  .00000310  00000+0  82740-3 0  9996
2 47265  87.9046 159.3047 0001741 104.0026 256.1296 13.12442944153559
ONEWEB-0120             
1 47266U 20100J   24052.31155270 -.00000165  00000+0 -49374-3 0  9998
2 47266  87.9046 159.1976 0001601 111.8533 248.2766 13.12438217153645
ONEWEB-0121             
1 47267U 20100K   24051.84221853 -.00000101  00000+0 -31725-3 0  9998
2 47267  87.9040 159.2869 0001879 103.9853 256.1485 13.12442373153493
ONEWEB-0122             
1 47268U 20100L   24051.83731665  .00000129  00000+0  32235-3 0  9990
2 47268  87.9041 159.2924 0001601 104.7480 255.3826 13.12443859153406
ONEWEB-0123             
1 47269U 20100M   24051.83268983  .00000239  00000+0  63027-3 0  9994
2 47269  87.9045 159.3032 0001692 107.8775 252.2538 13.12443174153544
ONEWEB-0124             
1 47270U 20100N   24052.35522293  .00000492  00000+0  13328-2 0  9990
2 47270  87.9046 159.1959 0001887  98.6449 261.4894 13.12445623153496
ONEWEB-0125             
1 47271U 20100P   24051.79615213 -.00000246  00000+0 -71823-3 0  9997
2 47271  87.9047 159.2639 0002070 115.5945 244.5398 13.12444995153480
